EWS-G2 (GOES 15)        
1 36411U 10008A   25144.63090259  .00000046  00000+0  00000+0 0  9992
2 36411   0.2692  85.8542 0001552 126.0453 319.2686  1.00266848 55743
GOES 16                 
1 41866U 16071A   25144.46692696 -.00000103  00000+0  00000+0 0  9997
2 41866   0.0550 261.6827 0001391 225.0902 185.7586  1.00124482 31201
GOES 17                 
1 43226U 18022A   25144.49621707 -.00000083  00000+0  00000+0 0  9992
2 43226   0.0090 252.8557 0002720 210.3726 213.3411  1.00270858 26525
GOES 18                 
1 51850U 22021A   25144.50600238  .00000106  00000+0  00000+0 0  9991
2 51850   0.0057 192.1793 0000303 353.1106 102.2237  1.00271086 11903
GOES 19                 
1 60133U 24119A   25144.50203806 -.00000239  00000+0  00000+0 0  9993
2 60133   0.0217  79.5377 0000058 180.9267  87.4073  1.00270190  3067
